ASTROCAST-0203          
1 48955U 21059CE  23349.92025142  .00007816  00000+0  31843-3 0  9997
2 48955  97.6102 126.7123 0012762  11.2337 348.9183 15.24687765136934
ASTROCAST-0205          
1 48960U 21059CK  23349.94223481  .00008731  00000+0  35514-3 0  9997
2 48960  97.6111 127.0416 0011622 352.9195   7.1876 15.24717557136947
GHALIB                  
1 48962U 21059CM  23350.37812289  .00066437  00000+0  12385-2 0  9995
2 48962  97.6079 133.5746 0004053 331.8474  28.2556 15.48583945137405
NAPA-2                  
1 48963U 21059CN  23350.47093181  .00009526  00000+0  42848-3 0  9993
2 48963  97.6184 124.3126 0011392   7.2220 352.9177 15.21275243136809
W-CUBE                  
1 48965U 21059CQ  23349.92014806  .00009619  00000+0  39720-3 0  9998
2 48965  97.6228 125.5850 0010075   1.2099 358.9160 15.24195876136817
NEPT-1                  
1 48966U 21059CR  23350.46764610  .00034584  00000+0  88861-3 0  9994
2 48966  97.6041 130.7013 0004442 335.7445  24.3590 15.39208793137283
JILIN-1 GAOFEN 3D01     
1 49004U 21061B   23350.44367350  .00011838  00000+0  51520-3 0  9998
2 49004  97.4246  51.9446 0011304  73.3140 286.9336 15.22333928135607
JILIN-1 GAOFEN 3D03     
1 49006U 21061D   23350.44133976  .00010062  00000+0  48109-3 0  9992
2 49006  97.4233  50.0869 0011672 117.4575 242.7848 15.19135279135483
XINGSHIDAI 10           
1 49007U 21061E   23350.43755497  .00009714  00000+0  46609-3 0  9995
2 49007  97.4238  50.0060 0012634 104.2336 256.0303 15.19012068135473
FENGYUN 3E              
1 49008U 21062A   23350.47744353  .00000014  00000+0  27111-4 0  9992
2 49008  98.7280 349.2739 0001528 160.2135 199.9100 14.19716500126921
DHABISAT (MYSAT-2)      
1 49016U 21013F   23349.73434340  .00198688  00000+0  97803-3 0  9995
2 49016  51.5749 245.5567 0006162 158.0350 202.0916 15.81014430138092
IT-SPINS                
1 49017U 21013G   23349.99535210  .00094646  00000+0  88915-3 0  9995
2 49017  51.5827 255.0226 0002754 167.4106 192.6958 15.66367661137936
ISS (NAUKA)             
1 49044U 21066A   23349.77942848  .00011909  00000+0  21312-3 0  9997
2 49044  51.6409 149.0630 0002164  26.5806 105.6517 15.50425701429955
BRO-4                   
1 49066U 21073A   23350.45719613  .00015328  00000+0  64966-3 0  9999
2 49066  97.4696  61.4450 0021690 186.5067 173.5891 15.23014065128719
RADCUBE                 
1 49067U 21073B   23350.19143192  .00030847  00000+0  10325-2 0  9996
2 49067  97.4643  62.8321 0016967 189.2797 170.8133 15.30766751128774
SUNSTORM                
1 49068U 21073C   23350.19804046  .00030641  00000+0  10638-2 0  9998
2 49068  97.4673  62.3636 0017165 191.7440 168.3402 15.29578000128739
LEDSAT                  
1 49069U 21073D   23350.15393450  .00009513  00000+0  46268-3 0  9990
2 49069  97.4629  58.2409 0021257 206.2427 153.7732 15.18419615128476
STARLINK-3100           
1 49144U 21082Q   23349.89600857 -.00000081  00000+0  98764-6 0  9998
2 49144  69.9983 188.8257 0002520 268.9398  91.1473 14.98328570123931
CUTE                    
1 49263U 21088D   23349.71799522  .00008803  00000+0  49954-3 0  9998
2 49263  97.5236  52.6851 0016152   4.5570 355.5805 15.13075446121697
2021-091B               
1 49316U 21091B   23350.46811018  .00004796  00000+0  23685-3 0  9990
2 49316  97.4542 175.5073 0004157  56.4007 303.7623 15.18336262120333
2021-091H               
1 49322U 21091H   23350.51330894  .00012458  00000+0  42042-3 0  9993
2 49322  97.4475 179.9744 0013204  15.2523 344.9113 15.30754821120641
2021-091K               
1 49324U 21091K   23350.49591561  .00059096  00000+0  12140-2 0  9996
2 49324  97.4164 183.0753 0009814 358.0951   2.0259 15.45753715120964
SDGSAT 1                
1 49387U 21100A   23350.44315095  .00004181  00000+0  20449-3 0  9994
2 49387  97.3932  47.9849 0000344  94.1965 265.9309 15.18751492117154
ASTERISC                
1 49395U 21102A   23349.71739966  .00011598  00000+0  63052-3 0  9997
2 49395  97.4633  38.7755 0013588 143.7988 216.4166 15.14560591115295
TEIKYOSAT-4 (OORURI)    
1 49396U 21102B   23349.72215552  .00001368  00000+0  10533-3 0  9999
2 49396  97.4898  35.9479 0013747 174.5642 185.5735 15.03184296115039
Z-SAT                   
1 49399U 21102E   23350.45776803  .00003097  00000+0  21321-3 0  9993
2 49399  97.4603  37.8877 0021737 162.7821 197.4149 15.06411174115318
HIBARI                  
1 49400U 21102F   23349.89116522  .00005643  00000+0  36057-3 0  9999
2 49400  97.4586  38.2651 0019386 155.9956 204.2181 15.08873142115307
KOSEN-1                 
1 49402U 21102H   23350.09140172  .00005036  00000+0  32356-3 0  9997
2 49402  97.4527  38.4188 0020573 151.5953 208.6402 15.08700189115360
GLOBAL-14               
1 49469U 21106A   23350.11772369  .00017135  00000+0  42883-3 0  9995
2 49469  42.0103 227.4633 0003042 184.2814 175.8000 15.39750273117291
GLOBAL-15               
1 49470U 21106B   23350.18668723  .00027435  00000+0  58818-3 0  9991
2 49470  42.0022 266.6185 0022614 190.0010 170.0384 15.43900653116856
GAOFEN-3 02             
1 49495U 21109A   23350.47855188  .00000080  00000+0  37591-4 0  9999
2 49495  98.4136 355.3369 0001403 129.9754 230.1559 14.42213532108611
GLOBAL-12               
1 49772U 21115BA  23349.52311951  .00013718  00000+0  36480-3 0  9990
2 49772  53.2083  37.7200 0002104  47.8946 312.2238 15.38547334114893
GLOBAL-13               
1 49773U 21115BB  23350.40373654  .00018826  00000+0  49654-3 0  9990
2 49773  53.2107  34.7660 0002274  32.3122 327.8022 15.38545589115019
2021-117A               
1 49812U 21117A   23350.45846757  .00061972  00000+0  94879-3 0  9999
2 49812  97.3349  74.0502 0006874 159.4451 200.7080 15.54132377113485
JINZIJING 1 03          
1 49813U 21117B   23350.47688047  .00135035  00000+0  11143-2 0  9992
2 49813  97.3240  73.5253 0004576 172.2390 187.8944 15.69903836113470
GLOBAL-17               
1 49949U 21120A   23350.07115498  .00017337  00000+0  45352-3 0  9991
2 49949  42.0072 354.7779 0008155  91.9010 268.2763 15.38363600113962
GLOBAL-16               
1 49950U 21120B   23350.42780816  .00020912  00000+0  54436-3 0  9990
2 49950  42.0075 352.2384 0006917 105.9002 254.2600 15.38427301114014
XW-3 (CAS-9)            
1 50466U 21131B   23350.47602563  .00000635  00000+0  21916-3 0  9990
2 50466  98.5418  71.3883 0003423 326.9173  33.1800 14.39242636103572
UMBRA-02                
1 50986U 22002C   23350.25368777  .00029225  00000+0  14434-2 0  9999
2 50986  97.4190  53.2657 0005820 153.0543 207.0994 15.17808189106314
TEVEL-3                 
1 50988U 22002E   23350.28222097  .00035623  00000+0  10104-2 0  9997
2 50988  97.4101  57.0269 0005186 314.8730  45.2092 15.36133393106601
TEVEL-8                 
1 50989U 22002F   23350.44019775  .00033008  00000+0  93909-3 0  9993
2 50989  97.4118  57.2643 0005025 313.0365  47.0457 15.36054997106624
ION SCV-004             
1 50993U 22002K   23349.90484252  .00003369  00000+0  17759-3 0  9999
2 50993  97.4162  49.9625 0007632 332.8382  27.2451 15.16230246106074
TEVEL-5                 
1 50998U 22002Q   23350.42680031  .00036024  00000+0  97504-3 0  9996
2 50998  97.4095  57.8372 0005882 304.5109  55.5580 15.37586123106673
TEVEL-6                 
1 50999U 22002R   23350.42609211  .00036890  00000+0  99888-3 0  9996
2 50999  97.4094  57.8253 0005884 304.0981  55.9705 15.37568647106670
TEVEL-1                 
1 51013U 22002AF  23350.36409066  .00034561  00000+0  98268-3 0  9997
2 51013  97.4092  57.0165 0004909 313.5687  46.5149 15.36064888106614
SANOSAT-1               
1 51031U 22002AZ  23350.18082432  .00131065  00000+0  14607-2 0  9992
2 51031  97.4178  63.9042 0005705 282.5268  77.5352 15.62376141106970
IRIS-A                  
1 51044U 22002BN  23350.17813930  .00010081  00000+0  41659-3 0  9992
2 51044  97.4125  53.1753 0006501 333.0811  27.0088 15.24170166106330
FLOCK 4X-28             
1 51045U 22002BP  23350.22542277  .00029720  00000+0  72955-3 0  9995
2 51045  97.4110  59.9425 0005558 276.8686  83.1927 15.40627072106774
FLOCK 4X-19             
1 51046U 22002BQ  23350.18328144  .00035817  00000+0  64399-3 0  9993
2 51046  97.4110  62.8620 0002959 276.2427  83.8487 15.49768067106940
KEPLER-19               
1 51051U 22002BV  23350.13593460  .00009022  00000+0  40232-3 0  9998
2 51051  97.4166  52.2732 0006515 342.5537  17.5474 15.21614064106256
ETV-A1                  
1 51060U 22002CE  23350.41875327  .00004770  00000+0  23614-3 0  9994
2 51060  97.4181  51.5981 0008472 356.3310   3.7860 15.18233006106218
BRO-5                   
1 51061U 22002CF  23350.42531428  .00005672  00000+0  27350-3 0  9990
2 51061  97.4229  52.6242 0008478 358.4944   1.6264 15.19072045106261
TEVEL-7                 
1 51062U 22002CG  23350.43762569  .00032732  00000+0  92990-3 0  9993
2 51062  97.4112  57.2317 0005044 312.7516  47.3303 15.36101521106623
TEVEL-4                 
1 51063U 22002CH  23350.45303998  .00032372  00000+0  92322-3 0  9992
2 51063  97.4112  57.2041 0005006 312.7088  47.3734 15.35983498106628
TEVEL-2                 
1 51069U 22002CP  23350.41321331  .00035094  00000+0  99472-3 0  9992
2 51069  97.4098  57.1259 0005128 313.9006  46.1814 15.36158350106623
DELFI-PQ                
1 51074U 22002CU  23350.16732773  .00363506  00000+0  19798-2 0  9990
2 51074  97.4280  68.3808 0006202 292.5032  67.5578 15.78940804107186
VZLUSAT-2               
1 51085U 22002DF  23350.41155632  .00009667  00000+0  42962-3 0  9998
2 51085  97.4157  52.3127 0011362 344.0529  16.0347 15.21672776106275
L-SAR 01A               
1 51284U 22007A   23350.50041995  .00000896  00000+0  10245-3 0  9994
2 51284  97.8081 355.0155 0001609  87.8341 272.3060 14.88422851102563
INSPIRESAT-1            
1 51657U 22013B   23350.27801122  .00006353  00000+0  28619-3 0  9993
2 51657  97.5417   1.3686 0011593  93.4686 266.7875 15.21355114101560
